NOAA 15                 
1 25338U 98030A   25015.59123901  .00000261  00000+0  12509-3 0  9992
2 25338  98.5505  44.1097 0011225  66.4886 293.7473 14.26856611387473
NOAA 18                 
1 28654U 05018A   25015.51671842  .00000320  00000+0  19314-3 0  9991
2 28654  98.8567  96.5660 0014385 177.7019 182.4222 14.13486874 13174
NOAA 19                 
1 33591U 09005A   25015.57049213  .00000260  00000+0  16281-3 0  9997
2 33591  99.0195  79.3374 0014450  56.0265 304.2278 14.13259699821362
METOP-B                 
1 38771U 12049A   25015.60504649  .00000217  00000+0  11913-3 0  9996
2 38771  98.6009  73.7476 0001761  81.2806 278.8571 14.21410442639733
SARAL                   
1 39086U 13009A   25015.55403342  .00000221  00000+0  97235-4 0  9992
2 39086  98.5490 203.7959 0002441  42.6610 317.4763 14.32634122621488
METOP-C                 
1 43689U 18087A   25015.57412620  .00000212  00000+0  11708-3 0  9998
2 43689  98.6964  78.0578 0001448 163.4391 196.6834 14.21481243321297
ANGELS                  
1 44876U 19092D   25015.50580497  .00024895  00000+0  75088-3 0  9999
2 44876  97.4621 211.2106 0007683 295.6742  64.3707 15.34256657281824
OTB-3-GAZELLE           
1 54023U 22127A   25015.55188139  .00000288  00000+0  10006-3 0  9998
2 54023  98.3580  11.3571 0012374 314.5594  45.4585 14.42379355119730
EOS-6 (OCEANSAT-3)      
1 54361U 22158A   25015.58160777  .00000625  00000+0  18363-3 0  9997
2 54361  98.3524 115.7726 0001376 102.9114 257.2232 14.47049483112984
